STARLINK-30753          
1 58175U 23167A   26067.56698206  .00001309  00000+0  58451-4 0  9997
2 58175  43.0013 149.7305 0001137 276.4768  83.5954 15.26749256130814
FLOCK 4G-26             
1 62633U 25009AA  26068.80489479  .00011283  00000+0  42469-3 0  9999
2 62633  97.4054 151.3913 0001988 299.1273  60.9767 15.27281631 63733
